{"generatedAt":"2026-03-31T07:25:26.472389Z","satellites":[{"name":"ONEWEB-0115","tle1":"1 48042U 21025A   26089.63659926 -.00000474  00000+0 -13326-2 0  9992","tle2":"2 48042  87.9019 335.8566 0001729  82.6836 277.4490 13.13469949243283"},{"name":"ONEWEB-0152","tle1":"1 48043U 21025B   26089.72632041 -.00000036  00000+0 -13396-3 0  9994","tle2":"2 48043  87.9012 335.8390 0001708  84.9311 275.2013 13.13472522243257"},{"name":"ONEWEB-0153","tle1":"1 48044U 21025C   26089.93284783 -.00000458  00000+0 -12881-2 0  9999","tle2":"2 48044  87.9011 335.8030 0001738  77.8297 282.3027 13.13469679243270"},{"name":"ONEWEB-0154","tle1":"1 48045U 21025D   26089.62476075 -.00000229  00000+0 -66133-3 0  9999","tle2":"2 48045  87.9012 335.8617 0001808  82.1161 278.0174 13.13469492243199"},{"name":"ONEWEB-0116","tle1":"1 48046U 21025E   26089.96839841  .00000283  00000+0  73878-3 0  9993","tle2":"2 48046  87.9017 335.7832 0001699  85.1654 274.9669 13.13472032243380"},{"name":"ONEWEB-0150","tle1":"1 48047U 21025F   26089.63998529 -.00000497  00000+0 -13956-2 0  9996","tle2":"2 48047  87.9022 335.8460 0001499  77.5200 282.6097 13.13469697243233"},{"name":"ONEWEB-0107","tle1":"1 48048U 21025G   26089.64168675 -.00000214  00000+0 -62023-3 0  9996","tle2":"2 48048  87.9022 335.8407 0001776  71.8772 288.2551 13.13471424243210"},{"name":"ONEWEB-0101","tle1":"1 48049U 21025H   26089.75679976  .00000209  00000+0  53862-3 0  9993","tle2":"2 48049  87.9011 335.8420 0001833  77.5662 282.5672 13.13471192243201"},{"name":"ONEWEB-0113","tle1":"1 48050U 21025J   26089.96021478  .00000060  00000+0  12804-3 0  9992","tle2":"2 48050  87.9017 335.7187 0001682  92.9512 267.1810 13.13951412243330"},{"name":"ONEWEB-0112","tle1":"1 48051U 21025K   26089.41822039 -.00000240  00000+0 -69120-3 0  9990","tle2":"2 48051  87.9019 335.8827 0001942  76.5510 283.5836 13.13470096243255"},{"name":"ONEWEB-0156","tle1":"1 48052U 21025L   26089.95993388  .00000112  00000+0  27205-3 0  9990","tle2":"2 48052  87.9020 335.7861 0001671  75.8593 284.2721 13.13472093243303"},{"name":"ONEWEB-0161","tle1":"1 48053U 21025M   26089.93454082 -.00000450  00000+0 -12678-2 0  9996","tle2":"2 48053  87.9009 335.7987 0001707  74.0650 286.0667 13.13469827243237"},{"name":"ONEWEB-0158","tle1":"1 48054U 21025N   26089.97008821  .00000308  00000+0  80979-3 0  9997","tle2":"2 48054  87.9019 335.7840 0001867  89.1705 270.9638 13.13472373243366"},{"name":"ONEWEB-0157","tle1":"1 48055U 21025P   26089.91930597  .00000064  00000+0  14044-3 0  9995","tle2":"2 48055  87.9019 335.7988 0001843  67.3963 292.7361 13.13470737243297"},{"name":"ONEWEB-0162","tle1":"1 48056U 21025Q   26089.97166429  .00000326  00000+0  85751-3 0  9991","tle2":"2 48056  87.9017 335.7923 0001552  77.8180 282.3122 13.13469543243270"},{"name":"ONEWEB-0155","tle1":"1 48057U 21025R   26089.59767468  .00000217  00000+0  55807-3 0  9998","tle2":"2 48057  87.9012 335.8643 0001839  76.4866 283.6468 13.13470939243368"},{"name":"ONEWEB-0149","tle1":"1 48058U 21025S   26089.92438617 -.00000099  00000+0 -30555-3 0  9990","tle2":"2 48058  87.9018 335.7979 0001504  78.0646 282.0652 13.13468377243214"},{"name":"ONEWEB-0148","tle1":"1 48059U 21025T   26089.96332564  .00000149  00000+0  37257-3 0  9999","tle2":"2 48059  87.9010 335.8030 0001240  65.7010 294.4249 13.13469470243349"},{"name":"ONEWEB-0160","tle1":"1 48060U 21025U   26089.59936777  .00000284  00000+0  74186-3 0  9998","tle2":"2 48060  87.9009 335.8714 0001847 104.5044 255.6290 13.13468785243242"},{"name":"ONEWEB-0163","tle1":"1 48061U 21025V   26089.96500880  .00000221  00000+0  57143-3 0  9997","tle2":"2 48061  87.9011 335.7918 0001834  71.3859 288.7469 13.13472622243411"},{"name":"ONEWEB-0159","tle1":"1 48062U 21025W   26089.72801943  .00000062  00000+0  13516-3 0  9995","tle2":"2 48062  87.9019 335.8268 0001669  72.5663 287.5649 13.13471963243303"},{"name":"ONEWEB-0164","tle1":"1 48063U 21025X   26089.93792460 -.00000275  00000+0 -78770-3 0  9993","tle2":"2 48063  87.9021 335.7918 0001771  82.8987 277.2343 13.13468366243316"},{"name":"ONEWEB-0167","tle1":"1 48064U 21025Y   26089.96585848  .00000327  00000+0  86039-3 0  9990","tle2":"2 48064  87.9009 335.8033 0002375  74.0409 286.0982 13.13473540243301"},{"name":"ONEWEB-0166","tle1":"1 48065U 21025Z   26089.91254042  .00000183  00000+0  46595-3 0  9998","tle2":"2 48065  87.9018 335.7784 0001553  75.6167 284.5135 13.13468482243378"},{"name":"ONEWEB-0151","tle1":"1 48066U 21025AA  26089.91423519  .00000170  00000+0  43004-3 0  9994","tle2":"2 48066  87.9013 335.8027 0001850  80.1509 279.9829 13.13471309243310"},{"name":"ONEWEB-0170","tle1":"1 48067U 21025AB  26089.92269496 -.00000034  00000+0 -12863-3 0  9998","tle2":"2 48067  87.9012 335.8027 0002075  89.8526 270.2841 13.13468368243279"},{"name":"ONEWEB-0168","tle1":"1 48068U 21025AC  26089.75510776  .00000268  00000+0  70026-3 0  9992","tle2":"2 48068  87.9021 335.8288 0001734  73.5860 286.5460 13.13468524243261"},{"name":"ONEWEB-0173","tle1":"1 48069U 21025AD  26089.97516703  .00000243  00000+0  63094-3 0  9993","tle2":"2 48069  87.9016 335.7911 0001947  71.1111 289.0229 13.13471472243534"},{"name":"ONEWEB-0171","tle1":"1 48070U 21025AE  26089.93623315 -.00000438  00000+0 -12338-2 0  9991","tle2":"2 48070  87.9009 335.8096 0001812  80.8933 279.2401 13.13469673243345"},{"name":"ONEWEB-0172","tle1":"1 48071U 21025AF  26089.91591459  .00000130  00000+0  32149-3 0  9993","tle2":"2 48071  87.9010 335.8012 0001858  77.3839 282.7498 13.13472461244235"},{"name":"ONEWEB-0174","tle1":"1 48072U 21025AG  26089.97347956  .00000301  00000+0  78820-3 0  9997","tle2":"2 48072  87.9008 335.7907 0001573  75.6427 284.4877 13.13471842243560"},{"name":"ONEWEB-0175","tle1":"1 48073U 21025AH  26089.92777089 -.00000166  00000+0 -49080-3 0  9994","tle2":"2 48073  87.9018 335.7774 0002046  82.9612 277.1750 13.13471582243219"},{"name":"ONEWEB-0177","tle1":"1 48074U 21025AJ  26089.93961565 -.00000277  00000+0 -79253-3 0  9998","tle2":"2 48074  87.9017 335.7963 0001720  73.2184 286.9134 13.13468889243405"},{"name":"ONEWEB-0178","tle1":"1 48075U 21025AK  26089.72984230  .00000148  00000+0  37138-3 0  9991","tle2":"2 48075  87.8998 335.8615 0001997  78.0843 282.0510 13.13472724243429"},{"name":"ONEWEB-0108","tle1":"1 48076U 21025AL  26089.91761722  .00000040  00000+0  75443-4 0  9995","tle2":"2 48076  87.9019 335.7889 0001517  84.3980 275.7322 13.13468601243370"},{"name":"ONEWEB-0169","tle1":"1 48077U 21025AM  26089.41652982 -.00000295  00000+0 -84327-3 0  9992","tle2":"2 48077  87.9010 335.9026 0001518  83.9474 276.1828 13.13470776241966"},{"name":"ONEWEB-0176","tle1":"1 48210U 21031A   26089.85378555 -.00000168  00000+0 -48842-3 0  9998","tle2":"2 48210  87.8947 305.3354 0001763  84.0810 276.0521 13.14503120238029"},{"name":"ONEWEB-0184","tle1":"1 48211U 21031B   26089.82681729  .00000073  00000+0  16158-3 0  9994","tle2":"2 48211  87.8962 305.3339 0002516  84.0958 276.0459 13.14503812237993"},{"name":"ONEWEB-0179","tle1":"1 48212U 21031C   26089.91667824  .00404857  00000+0  54674+0 0  9994","tle2":"2 48212  87.8952 305.2037 0005708  44.0535 197.8014 13.57027397  4995"},{"name":"ONEWEB-0180","tle1":"1 48213U 21031D   26089.82999259  .00000097  00000+0  22710-3 0  9993","tle2":"2 48213  87.8956 305.3351 0001801  75.8421 284.2909 13.14503461237925"},{"name":"ONEWEB-0218","tle1":"1 48214U 21031E   26089.85220042 -.00000209  00000+0 -59793-3 0  9992","tle2":"2 48214  87.8951 305.3292 0002530  77.1871 282.9541 13.14503538238089"},{"name":"ONEWEB-0209","tle1":"1 48215U 21031F   26089.84109269 -.00000032  00000+0 -12046-3 0  9993","tle2":"2 48215  87.8940 305.3563 0001619  77.7251 282.4060 13.14504025238087"},{"name":"ONEWEB-0198","tle1":"1 48216U 21031G   26089.59702597  .00000159  00000+0  39468-3 0  9994","tle2":"2 48216  87.8945 305.4052 0001951  74.0244 286.1101 13.14503263238167"},{"name":"ONEWEB-0189","tle1":"1 48217U 21031H   26089.83792816 -.00000018  00000+0 -81956-4 0  9991","tle2":"2 48217  87.8954 305.3350 0001880  76.7357 283.3983 13.14505408237937"},{"name":"ONEWEB-0196","tle1":"1 48218U 21031J   26089.89184342  .00000301  00000+0  77814-3 0  9997","tle2":"2 48218  87.8948 305.3347 0001736  80.9038 279.2289 13.14501385237944"},{"name":"ONEWEB-0183","tle1":"1 48219U 21031K   26089.86646719 -.00000050  00000+0 -16883-3 0  9998","tle2":"2 48219  87.8945 305.3394 0001449  85.0673 275.0622 13.14503892238037"},{"name":"ONEWEB-0185","tle1":"1 48220U 21031L   26089.89263878  .00000240  00000+0  61404-3 0  9992","tle2":"2 48220  87.8953 305.3208 0001381  73.1855 286.9426 13.14503117237961"},{"name":"ONEWEB-0187","tle1":"1 48221U 21031M   26089.87267170  .00000038  00000+0  67010-4 0  9995","tle2":"2 48221  87.8936 305.3541 0001648  76.1309 284.0004 13.14504385237976"},{"name":"ONEWEB-0192","tle1":"1 48222U 21031N   26089.84267641 -.00000077  00000+0 -24335-3 0  9993","tle2":"2 48222  87.8936 305.3491 0001762  84.2105 275.9226 13.14503676237889"},{"name":"ONEWEB-0219","tle1":"1 48223U 21031P   26089.82205776 -.00000105  00000+0 -31795-3 0  9993","tle2":"2 48223  87.8949 305.3406 0001542  77.0041 283.1261 13.14501575238084"},{"name":"ONEWEB-0202","tle1":"1 48224U 21031Q   26089.87916163  .00000095  00000+0  22186-3 0  9998","tle2":"2 48224  87.8945 305.3379 0002317  78.0481 282.0909 13.14502869238073"},{"name":"ONEWEB-0204","tle1":"1 48225U 21031R   26089.83712532  .00000009  00000+0 -11110-4 0  9991","tle2":"2 48225  87.8955 305.3409 0001348  84.8681 275.2603 13.14500887237969"},{"name":"ONEWEB-0205","tle1":"1 48226U 21031S   26089.88866096  .00000221  00000+0  56289-3 0  9992","tle2":"2 48226  87.8948 305.3223 0001597  79.1945 280.9365 13.14504076237986"},{"name":"ONEWEB-0206","tle1":"1 48227U 21031T   26089.86170127 -.00000443  00000+0 -12293-2 0  9998","tle2":"2 48227  87.8954 305.3289 0001799  92.5419 267.5917 13.14502185237933"}]}